{
  "type": "FeatureCollection",
  "features": [
    {
      "type": "Feature",
      "properties": {
        "norad_id": 37781,
        "name": "HAIYANG-2A",
        "group": "resource",
        "lat": 80.65315777338573,
        "lon": -102.4929212962089,
        "alt_km": 959.3449287146977,
        "timestamp": "2025-12-10T23:33:12.483628+00:00",
        "meta_object_name": "HAIYANG-2A",
        "meta_object_id": "2011-043A",
        "meta_epoch": "2025-12-10T14:24:44.449344",
        "meta_mean_motion": 13.78835137,
        "meta_eccentricity": 0.00016672,
        "meta_inclination": 99.3378,
        "meta_ra_of_asc_node": 345.5675,
        "meta_arg_of_pericenter": 84.4566,
        "meta_mean_anomaly": 275.6776,
        "meta_ephemeris_type": 0,
        "meta_classification_type": "U",
        "meta_norad_cat_id": 37781,
        "meta_element_set_no": 999,
        "meta_rev_at_epoch": 72069,
        "meta_bstar": 0.00015776732,
        "meta_mean_motion_dot": 1.17e-06,
        "meta_mean_motion_ddot": 0,
        "tle_line1": "1 37781U 11043A   25344.60051446  .00000117  00000+0  15777-3 0  9997",
        "tle_line2": "2 37781  99.3378 345.5675 0001667  84.4566 275.6776 13.78835137720695"
      },
      "geometry": {
        "type": "Point",
        "coordinates": [
          -102.4929212962089,
          80.65315777338573
        ]
      }
    },
    {
      "type": "Feature",
      "properties": {
        "norad_id": 37791,
        "name": "RASAT",
        "group": "resource",
        "lat": 3.1320184958469115,
        "lon": 73.82062931662988,
        "alt_km": 664.2191713946386,
        "timestamp": "2025-12-10T23:33:12.483637+00:00",
        "meta_object_name": "RASAT",
        "meta_object_id": "2011-044D",
        "meta_epoch": "2025-12-10T12:20:37.272192",
        "meta_mean_motion": 14.6790589,
        "meta_eccentricity": 0.00219418,
        "meta_inclination": 98.0651,
        "meta_ra_of_asc_node": 73.8051,
        "meta_arg_of_pericenter": 71.5635,
        "meta_mean_anomaly": 345.1941,
        "meta_ephemeris_type": 0,
        "meta_classification_type": "U",
        "meta_norad_cat_id": 37791,
        "meta_element_set_no": 999,
        "meta_rev_at_epoch": 76550,
        "meta_bstar": 0.00024657815,
        "meta_mean_motion_dot": 1.366e-05,
        "meta_mean_motion_ddot": 0,
        "tle_line1": "1 37791U 11044D   25344.51432028  .00001366  00000+0  24658-3 0  9993",
        "tle_line2": "2 37791  98.0651  73.8051 0021941  71.5635 345.1941 14.67905890765505"
      },
      "geometry": {
        "type": "Point",
        "coordinates": [
          73.82062931662988,
          3.1320184958469115
        ]
      }
    },
    {
      "type": "Feature",
      "properties": {
        "norad_id": 37841,
        "name": "SRMSAT",
        "group": "resource",
        "lat": 17.159835997024672,
        "lon": -119.646569901954,
        "alt_km": 857.8277532014126,
        "timestamp": "2025-12-10T23:33:12.483646+00:00",
        "meta_object_name": "SRMSAT",
        "meta_object_id": "2011-058D",
        "meta_epoch": "2025-12-10T13:08:40.690752",
        "meta_mean_motion": 14.11510382,
        "meta_eccentricity": 0.00117109,
        "meta_inclination": 19.9705,
        "meta_ra_of_asc_node": 121.2177,
        "meta_arg_of_pericenter": 289.1753,
        "meta_mean_anomaly": 142.4183,
        "meta_ephemeris_type": 0,
        "meta_classification_type": "U",
        "meta_norad_cat_id": 37841,
        "meta_element_set_no": 999,
        "meta_rev_at_epoch": 73113,
        "meta_bstar": 0.00014257877,
        "meta_mean_motion_dot": 5.27e-06,
        "meta_mean_motion_ddot": 0,
        "tle_line1": "1 37841U 11058D   25344.54769318  .00000527  00000+0  14258-3 0  9995",
        "tle_line2": "2 37841  19.9705 121.2177 0011710 289.1753 142.4183 14.11510382731136"
      },
      "geometry": {
        "type": "Point",
        "coordinates": [
          -119.646569901954,
          17.159835997024672
        ]
      }
    },
    {
      "type": "Feature",
      "properties": {
        "norad_id": 38012,
        "name": "PLEIADES 1A",
        "group": "resource",
        "lat": -37.37762103355899,
        "lon": -128.53361783905015,
        "alt_km": 705.0077238894455,
        "timestamp": "2025-12-10T23:33:12.483655+00:00",
        "meta_object_name": "PLEIADES 1A",
        "meta_object_id": "2011-076F",
        "meta_epoch": "2025-12-10T14:56:22.604640",
        "meta_mean_motion": 14.5855918,
        "meta_eccentricity": 0.00013479,
        "meta_inclination": 98.1822,
        "meta_ra_of_asc_node": 57.4235,
        "meta_arg_of_pericenter": 72.0145,
        "meta_mean_anomaly": 62.25,
        "meta_ephemeris_type": 0,
        "meta_classification_type": "U",
        "meta_norad_cat_id": 38012,
        "meta_element_set_no": 999,
        "meta_rev_at_epoch": 74450,
        "meta_bstar": 0.00020794222,
        "meta_mean_motion_dot": 9.21e-06,
        "meta_mean_motion_ddot": 0,
        "tle_line1": "1 38012U 11076F   25344.62248385  .00000921  00000+0  20794-3 0  9991",
        "tle_line2": "2 38012  98.1822  57.4235 0001347  72.0145  62.2500 14.58559180744507"
      },
      "geometry": {
        "type": "Point",
        "coordinates": [
          -128.53361783905015,
          -37.37762103355899
        ]
      }
    },
    {
      "type": "Feature",
      "properties": {
        "norad_id": 38038,
        "name": "ZIYUAN 1-02C (ZY 1-02C)",
        "group": "resource",
        "lat": -73.25452355878612,
        "lon": -158.515141490608,
        "alt_km": 774.3182237059009,
        "timestamp": "2025-12-10T23:33:12.483665+00:00",
        "meta_object_name": "ZIYUAN 1-02C (ZY 1-02C)",
        "meta_object_id": "2011-079A",
        "meta_epoch": "2025-12-10T14:38:00.984768",
        "meta_mean_motion": 14.38008977,
        "meta_eccentricity": 0.00070317,
        "meta_inclination": 98.4331,
        "meta_ra_of_asc_node": 50.6624,
        "meta_arg_of_pericenter": 143.7642,
        "meta_mean_anomaly": 348.6969,
        "meta_ephemeris_type": 0,
        "meta_classification_type": "U",
        "meta_norad_cat_id": 38038,
        "meta_element_set_no": 999,
        "meta_rev_at_epoch": 73210,
        "meta_bstar": 0.00032833894,
        "meta_mean_motion_dot": 9.5e-06,
        "meta_mean_motion_ddot": 0,
        "tle_line1": "1 38038U 11079A   25344.60973362  .00000950  00000+0  32834-3 0  9990",
        "tle_line2": "2 38038  98.4331  50.6624 0007031 143.7642 348.6969 14.38008977732108"
      },
      "geometry": {
        "type": "Point",
        "coordinates": [
          -158.515141490608,
          -73.25452355878612
        ]
      }
    },
    {
      "type": "Feature",
      "properties": {
        "norad_id": 38046,
        "name": "ZIYUAN 3-1 (ZY 3-1)",
        "group": "resource",
        "lat": -52.737048856418326,
        "lon": 60.88979500030969,
        "alt_km": 370.33715266375384,
        "timestamp": "2025-12-10T23:33:12.483674+00:00",
        "meta_object_name": "ZIYUAN 3-1 (ZY 3-1)",
        "meta_object_id": "2012-001A",
        "meta_epoch": "2025-12-10T16:07:23.249568",
        "meta_mean_motion": 15.68140977,
        "meta_eccentricity": 0.0001905,
        "meta_inclination": 97.1753,
        "meta_ra_of_asc_node": 51.0411,
        "meta_arg_of_pericenter": 2.2419,
        "meta_mean_anomaly": 357.8851,
        "meta_ephemeris_type": 0,
        "meta_classification_type": "U",
        "meta_norad_cat_id": 38046,
        "meta_element_set_no": 999,
        "meta_rev_at_epoch": 77464,
        "meta_bstar": 0.00086097,
        "meta_mean_motion_dot": 0.00096562,
        "meta_mean_motion_ddot": 0,
        "tle_line1": "1 38046U 12001A   25344.67179687  .00096562  00000+0  86097-3 0  9994",
        "tle_line2": "2 38046  97.1753  51.0411 0001905   2.2419 357.8851 15.68140977774643"
      },
      "geometry": {
        "type": "Point",
        "coordinates": [
          60.88979500030969,
          -52.737048856418326
        ]
      }
    },
    {
      "type": "Feature",
      "properties": {
        "norad_id": 38338,
        "name": "ARIRANG-3 (KOMPSAT-3)",
        "group": "resource",
        "lat": 80.15223388881297,
        "lon": 177.14771691570994,
        "alt_km": 681.6155000242261,
        "timestamp": "2025-12-10T23:33:12.483684+00:00",
        "meta_object_name": "ARIRANG-3 (KOMPSAT-3)",
        "meta_object_id": "2012-025B",
        "meta_epoch": "2025-12-10T14:54:18.369216",
        "meta_mean_motion": 14.61708382,
        "meta_eccentricity": 0.00055078,
        "meta_inclination": 98.3319,
        "meta_ra_of_asc_node": 299.1945,
        "meta_arg_of_pericenter": 345.8365,
        "meta_mean_anomaly": 14.268,
        "meta_ephemeris_type": 0,
        "meta_classification_type": "U",
        "meta_norad_cat_id": 38338,
        "meta_element_set_no": 999,
        "meta_rev_at_epoch": 72379,
        "meta_bstar": 0.0002098684,
        "meta_mean_motion_dot": 9.97e-06,
        "meta_mean_motion_ddot": 0,
        "tle_line1": "1 38338U 12025B   25344.62104594  .00000997  00000+0  20987-3 0  9997",
        "tle_line2": "2 38338  98.3319 299.1945 0005507 345.8365  14.2680 14.61708382723799"
      },
      "geometry": {
        "type": "Point",
        "coordinates": [
          177.14771691570994,
          80.15223388881297
        ]
      }
    }
  ]
}